{
  "norad_id": 61774,
  "name": "SITRO-AIS 46",
  "history": [
    {
      "epoch": "2026-03-28T21:40:34.904928Z",
      "apogee_km": 412.64631410251695,
      "perigee_km": 403.36178736254624,
      "latitude_deg": 4.597415400145066e-05,
      "longitude_deg": 171.18590443859836,
      "height_km": 415.0690171065946,
      "semi_major_axis_km": 6786.141050732531,
      "eccentricity": 0.00068408,
      "inclination_deg": 97.3034,
      "raan_deg": 322.6483,
      "arg_perigee_deg": 212.3521,
      "mean_anomaly_deg": 147.7314,
      "mean_motion_rev_day": 15.52989211
    },
    {
      "epoch": "2026-03-29T03:51:43.215840Z",
      "apogee_km": 412.5552152806904,
      "perigee_km": 403.2556227496725,
      "latitude_deg": 8.313964090207241e-05,
      "longitude_deg": 78.40963565945327,
      "height_km": 415.01463926898754,
      "semi_major_axis_km": 6786.042419015182,
      "eccentricity": 0.0006852,
      "inclination_deg": 97.3031,
      "raan_deg": 322.9107,
      "arg_perigee_deg": 211.4683,
      "mean_anomaly_deg": 148.6162,
      "mean_motion_rev_day": 15.53023069
    },
    {
      "epoch": "2026-03-30T04:36:12.244032Z",
      "apogee_km": 412.30917351510925,
      "perigee_km": 402.82682934610875,
      "latitude_deg": -6.64331326415675e-07,
      "longitude_deg": 67.32170312978265,
      "height_km": 414.93038269896135,
      "semi_major_axis_km": 6785.705001430609,
      "eccentricity": 0.0006987,
      "inclination_deg": 97.303,
      "raan_deg": 323.9598,
      "arg_perigee_deg": 207.1363,
      "mean_anomaly_deg": 152.9526,
      "mean_motion_rev_day": 15.53138906
    },
    {
      "epoch": "2026-03-30T06:08:58.824096Z",
      "apogee_km": 412.30566799010194,
      "perigee_km": 402.7879321784276,
      "latitude_deg": -6.274043248009159e-05,
      "longitude_deg": 44.12962437104584,
      "height_km": 414.9339200345307,
      "semi_major_axis_km": 6785.6838000842645,
      "eccentricity": 0.00070131,
      "inclination_deg": 97.3031,
      "raan_deg": 324.0253,
      "arg_perigee_deg": 206.8981,
      "mean_anomaly_deg": 153.1909,
      "mean_motion_rev_day": 15.53146185
    }
  ]
}